[Satellite]
VERSION=1.1
NAME=SWARM B
NICKNAME=SWARM B
TLE1=1 39451U 13067A   19317.84434797  .00000325  00000-0  12792-4 0  9991
TLE2=2 39451  87.7509 344.7617 0002089  63.4570 296.6889 15.21634743331591
STATUS=0
